{"type": "FeatureCollection", "features": [ {"type": "Feature", "properties": {"norad_id": 66568, "name": "STARLINK-35803", "group": "last-30-days", "lat": 40.39184826099119, "lon": -170.99230331629676, "alt_km": 409.7797320563859, "timestamp": "2025-12-12T09:49:07.481358+00:00", "meta": {"OBJECT_NAME": "STARLINK-35803", "OBJECT_ID": "2025-268M", "EPOCH": "2025-12-12T04:00:01.998720", "MEAN_MOTION": 15.50500261, "ECCENTRICITY": 0.0001891, "INCLINATION": 43.0002, "RA_OF_ASC_NODE": 124.4969, "ARG_OF_PERICENTER": 282.553, "MEAN_ANOMALY": 234.5555, "EPHEMERIS_TYPE": 0, "CLASSIFICATION_TYPE": "U", "NORAD_CAT_ID": 66568, "ELEMENT_SET_NO": 999, "REV_AT_EPOCH": 457, "BSTAR": 0.0015669, "MEAN_MOTION_DOT": 0.00092417, "MEAN_MOTION_DDOT": 0}, "tle": {"line1": "1 66568U 25268M   25346.16668980  .00092417  00000+0  15669-2 0  9999", "line2": "2 66568  43.0002 124.4969 0001891 282.5530 234.5555 15.50500261  4571"}}, "geometry": {"type": "Point", "coordinates": [-170.99230331629676, 40.39184826099119]}}, {"type": "Feature", "properties": {"norad_id": 66569, "name": "STARLINK-35835", "group": "last-30-days", "lat": 40.90370258868675, "lon": -168.53933132243588, "alt_km": 409.83317029174304, "timestamp": "2025-12-12T09:49:07.481369+00:00", "meta": {"OBJECT_NAME": "STARLINK-35835", "OBJECT_ID": "2025-268N", "EPOCH": "2025-12-12T04:00:01.998720", "MEAN_MOTION": 15.50553288, "ECCENTRICITY": 0.0001944, "INCLINATION": 43.0003, "RA_OF_ASC_NODE": 124.4922, "ARG_OF_PERICENTER": 272.5421, "MEAN_ANOMALY": 246.4736, "EPHEMERIS_TYPE": 0, "CLASSIFICATION_TYPE": "U", "NORAD_CAT_ID": 66569, "ELEMENT_SET_NO": 999, "REV_AT_EPOCH": 457, "BSTAR": 4.8298e-05, "MEAN_MOTION_DOT": 2.49e-05, "MEAN_MOTION_DDOT": 0}, "tle": {"line1": "1 66569U 25268N   25346.16668980  .00002490  00000+0  48298-4 0  9998", "line2": "2 66569  43.0003 124.4922 0001944 272.5421 246.4736 15.50553288  4579"}}, "geometry": {"type": "Point", "coordinates": [-168.53933132243588, 40.90370258868675]}}, {"type": "Feature", "properties": {"norad_id": 66570, "name": "STARLINK-35834", "group": "last-30-days", "lat": 41.352920696241284, "lon": -166.10602556390162, "alt_km": 409.64782523149825, "timestamp": "2025-12-12T09:49:07.481381+00:00", "meta": {"OBJECT_NAME": "STARLINK-35834", "OBJECT_ID": "2025-268P", "EPOCH": "2025-12-12T04:00:01.998720", "MEAN_MOTION": 15.50497913, "ECCENTRICITY": 0.0001639, "INCLINATION": 43.0003, "RA_OF_ASC_NODE": 124.487, "ARG_OF_PERICENTER": 260.3628, "MEAN_ANOMALY": 260.5752, "EPHEMERIS_TYPE": 0, "CLASSIFICATION_TYPE": "U", "NORAD_CAT_ID": 66570, "ELEMENT_SET_NO": 999, "REV_AT_EPOCH": 457, "BSTAR": 0.0016729, "MEAN_MOTION_DOT": 0.00098758, "MEAN_MOTION_DDOT": 0}, "tle": {"line1": "1 66570U 25268P   25346.16668980  .00098758  00000+0  16729-2 0  9994", "line2": "2 66570  43.0003 124.4870 0001639 260.3628 260.5752 15.50497913  4575"}}, "geometry": {"type": "Point", "coordinates": [-166.10602556390162, 41.352920696241284]}}, {"type": "Feature", "properties": {"norad_id": 66571, "name": "STARLINK-35836", "group": "last-30-days", "lat": 41.75986358413975, "lon": -163.57424791531807, "alt_km": 409.6361334584635, "timestamp": "2025-12-12T09:49:07.481394+00:00", "meta": {"OBJECT_NAME": "STARLINK-35836", "OBJECT_ID": "2025-268Q", "EPOCH": "2025-12-12T04:00:01.998720", "MEAN_MOTION": 15.50547612, "ECCENTRICITY": 0.0001785, "INCLINATION": 43.0003, "RA_OF_ASC_NODE": 124.4821, "ARG_OF_PERICENTER": 268.7634, "MEAN_ANOMALY": 254.0838, "EPHEMERIS_TYPE": 0, "CLASSIFICATION_TYPE": "U", "NORAD_CAT_ID": 66571, "ELEMENT_SET_NO": 999, "REV_AT_EPOCH": 457, "BSTAR": 0.0003388, "MEAN_MOTION_DOT": 0.00019562, "MEAN_MOTION_DDOT": 0}, "tle": {"line1": "1 66571U 25268Q   25346.16668980  .00019562  00000+0  33880-3 0  9999", "line2": "2 66571  43.0003 124.4821 0001785 268.7634 254.0838 15.50547612  4578"}}, "geometry": {"type": "Point", "coordinates": [-163.57424791531807, 41.75986358413975]}}, {"type": "Feature", "properties": {"norad_id": 66572, "name": "STARLINK-35870", "group": "last-30-days", "lat": 42.107224789053554, "lon": -161.03588820143287, "alt_km": 409.5580959690551, "timestamp": "2025-12-12T09:49:07.481404+00:00", "meta": {"OBJECT_NAME": "STARLINK-35870", "OBJECT_ID": "2025-268R", "EPOCH": "2025-12-12T04:00:01.998720", "MEAN_MOTION": 15.50548765, "ECCENTRICITY": 0.000175, "INCLINATION": 43.0003, "RA_OF_ASC_NODE": 124.4785, "ARG_OF_PERICENTER": 270.444, "MEAN_ANOMALY": 254.3224, "EPHEMERIS_TYPE": 0, "CLASSIFICATION_TYPE": "U", "NORAD_CAT_ID": 66572, "ELEMENT_SET_NO": 999, "REV_AT_EPOCH": 457, "BSTAR": 0.00033134, "MEAN_MOTION_DOT": 0.00019123, "MEAN_MOTION_DDOT": 0}, "tle": {"line1": "1 66572U 25268R   25346.16668980  .00019123  00000+0  33134-3 0  9995", "line2": "2 66572  43.0003 124.4785 0001750 270.4440 254.3224 15.50548765  4577"}}, "geometry": {"type": "Point", "coordinates": [-161.03588820143287, 42.107224789053554]}}, {"type": "Feature", "properties": {"norad_id": 66573, "name": "STARLINK-35650", "group": "last-30-days", "lat": 42.4052831735567, "lon": -158.4033442997847, "alt_km": 409.3718258232575, "timestamp": "2025-12-12T09:49:07.481415+00:00", "meta": {"OBJECT_NAME": "STARLINK-35650", "OBJECT_ID": "2025-268S", "EPOCH": "2025-12-12T04:00:01.998720", "MEAN_MOTION": 15.50663618, "ECCENTRICITY": 0.0001663, "INCLINATION": 43.0005, "RA_OF_ASC_NODE": 124.4726, "ARG_OF_PERICENTER": 268.0784, "MEAN_ANOMALY": 258.5945, "EPHEMERIS_TYPE": 0, "CLASSIFICATION_TYPE": "U", "NORAD_CAT_ID": 66573, "ELEMENT_SET_NO": 999, "REV_AT_EPOCH": 457, "BSTAR": -0.0022968, "MEAN_MOTION_DOT": -0.0013322, "MEAN_MOTION_DDOT": 0}, "tle": {"line1": "1 66573U 25268S   25346.16668980 -.00133220  00000+0 -22968-2 0  9995", "line2": "2 66573  43.0005 124.4726 0001663 268.0784 258.5945 15.50663618  4573"}}, "geometry": {"type": "Point", "coordinates": [-158.4033442997847, 42.4052831735567]}}, {"type": "Feature", "properties": {"norad_id": 66574, "name": "STARLINK-35812", "group": "last-30-days", "lat": 42.62908777595497, "lon": -155.9099519590539, "alt_km": 409.4499795109987, "timestamp": "2025-12-12T09:49:07.481428+00:00", "meta": {"OBJECT_NAME": "STARLINK-35812", "OBJECT_ID": "2025-268T", "EPOCH": "2025-12-12T04:00:01.998720", "MEAN_MOTION": 15.50496989, "ECCENTRICITY": 0.0001629, "INCLINATION": 43.0002, "RA_OF_ASC_NODE": 124.4679, "ARG_OF_PERICENTER": 267.1364, "MEAN_ANOMALY": 261.4861, "EPHEMERIS_TYPE": 0, "CLASSIFICATION_TYPE": "U", "NORAD_CAT_ID": 66574, "ELEMENT_SET_NO": 999, "REV_AT_EPOCH": 457, "BSTAR": 0.0016743, "MEAN_MOTION_DOT": 0.00098844, "MEAN_MOTION_DDOT": 0}, "tle": {"line1": "1 66574U 25268T   25346.16668980  .00098844  00000+0  16743-2 0  9990", "line2": "2 66574  43.0002 124.4679 0001629 267.1364 261.4861 15.50496989  4579"}}, "geometry": {"type": "Point", "coordinates": [-155.9099519590539, 42.62908777595497]}}, {"type": "Feature", "properties": {"norad_id": 66575, "name": "STARLINK-35810", "group": "last-30-days", "lat": 42.805017004251276, "lon": -153.28749819699047, "alt_km": 409.36567051613656, "timestamp": "2025-12-12T09:49:07.481439+00:00", "meta": {"OBJECT_NAME": "STARLINK-35810", "OBJECT_ID": "2025-268U", "EPOCH": "2025-12-12T04:00:01.998720", "MEAN_MOTION": 15.50546165, "ECCENTRICITY": 0.0001582, "INCLINATION": 43.0003, "RA_OF_ASC_NODE": 124.463, "ARG_OF_PERICENTER": 272.913, "MEAN_ANOMALY": 257.6184, "EPHEMERIS_TYPE": 0, "CLASSIFICATION_TYPE": "U", "NORAD_CAT_ID": 66575, "ELEMENT_SET_NO": 999, "REV_AT_EPOCH": 457, "BSTAR": 0.00026184, "MEAN_MOTION_DOT": 0.00015031, "MEAN_MOTION_DDOT": 0}, "tle": {"line1": "1 66575U 25268U   25346.16668980  .00015031  00000+0  26184-3 0  9999", "line2": "2 66575  43.0003 124.4630 0001582 272.9130 257.6184 15.50546165  4578"}}, "geometry": {"type": "Point", "coordinates": [-153.28749819699047, 42.805017004251276]}}, {"type": "Feature", "properties": {"norad_id": 66576, "name": "STARLINK-35814", "group": "last-30-days", "lat": 42.918830141196345, "lon": -150.70349995205507, "alt_km": 409.3569713018687, "timestamp": "2025-12-12T09:49:07.481449+00:00", "meta": {"OBJECT_NAME": "STARLINK-35814", "OBJECT_ID": "2025-268V", "EPOCH": "2025-12-12T04:00:01.998720", "MEAN_MOTION": 15.50501644, "ECCENTRICITY": 0.0001555, "INCLINATION": 43.0003, "RA_OF_ASC_NODE": 124.458, "ARG_OF_PERICENTER": 268.8071, "MEAN_ANOMALY": 263.6477, "EPHEMERIS_TYPE": 0, "CLASSIFICATION_TYPE": "U", "NORAD_CAT_ID": 66576, "ELEMENT_SET_NO": 999, "REV_AT_EPOCH": 457, "BSTAR": 0.001544, "MEAN_MOTION_DOT": 0.00091044, "MEAN_MOTION_DDOT": 0}, "tle": {"line1": "1 66576U 25268V   25346.16668980  .00091044  00000+0  15440-2 0  9990", "line2": "2 66576  43.0003 124.4580 0001555 268.8071 263.6477 15.50501644  4576"}}, "geometry": {"type": "Point", "coordinates": [-150.70349995205507, 42.918830141196345]}}, {"type": "Feature", "properties": {"norad_id": 66577, "name": "STARLINK-35815", "group": "last-30-days", "lat": 42.974615001728694, "lon": -148.06234268072217, "alt_km": 409.40800956380554, "timestamp": "2025-12-12T09:49:07.481459+00:00", "meta": {"OBJECT_NAME": "STARLINK-35815", "OBJECT_ID": "2025-268W", "EPOCH": "2025-12-12T04:00:01.998720", "MEAN_MOTION": 15.50545699, "ECCENTRICITY": 0.0001649, "INCLINATION": 43.0003, "RA_OF_ASC_NODE": 124.4533, "ARG_OF_PERICENTER": 271.3645, "MEAN_ANOMALY": 263.0035, "EPHEMERIS_TYPE": 0, "CLASSIFICATION_TYPE": "U", "NORAD_CAT_ID": 66577, "ELEMENT_SET_NO": 999, "REV_AT_EPOCH": 457, "BSTAR": 0.00015113, "MEAN_MOTION_DOT": 8.524e-05, "MEAN_MOTION_DDOT": 0}, "tle": {"line1": "1 66577U 25268W   25346.16668980  .00008524  00000+0  15113-3 0  9990", "line2": "2 66577  43.0003 124.4533 0001649 271.3645 263.0035 15.50545699  4577"}}, "geometry": {"type": "Point", "coordinates": [-148.06234268072217, 42.974615001728694]}}]}